*******************************************************************************
Ephemeris / WWW_USER Mon Jul 15 19:00:02 2024 Pasadena, USA      / Horizons    
*******************************************************************************
Target body name: (2018 RP1)                      {source: JPL#4}
Center body name: Earth (399)                     {source: DE441}
Center-site name: Gemini South Obs., Cerro Pachon
*******************************************************************************
Start time      : A.D. 2018-Dec-11 23:47:00.0000 UT      
Stop  time      : A.D. 2018-Dec-12 09:25:00.0000 UT      
Step-size       : 1 minutes
*******************************************************************************
Target pole/equ : undefined
Target radii    : undefined                                                    
Center geodetic : 289.2634, -30.2406227, 2.71233  {E-lon(deg),Lat(deg),Alt(km)}
Center cylindric: 289.2634,5517.21435,-3194.81213 {E-lon(deg),Dxy(km),Dz(km)}
Center pole/equ : ITRF93                          {East-longitude positive}
Center radii    : 6378.137, 6378.137, 6356.752 km {Equator_a, b, pole_c}       
Target primary  : Sun
Vis. interferer : MOON (R_eq= 1737.400) km        {source: DE441}
Rel. light bend : Sun                             {source: DE441}
Rel. lght bnd GM: 1.3271E+11 km^3/s^2                                          
Small-body perts: Yes                             {source: SB441-N16}
Atmos refraction: NO (AIRLESS)
RA format       : HMS
Time format     : CAL 
Calendar mode   : Mixed Julian/Gregorian
RTS-only print  : NO       
EOP file        : eop.240715.p241008                                           
EOP coverage    : DATA-BASED 1962-JAN-20 TO 2024-JUL-15. PREDICTS-> 2024-OCT-07
Units conversion: 1 au= 149597870.700 km, c= 299792.458 km/s, 1 day= 86400.0 s 
Table cut-offs 1: Elevation (-90.0deg=NO ),Airmass (>38.000=NO), Daylight (YES)
Table cut-offs 2: Solar elongation (  0.0,180.0=NO ),Local Hour Angle( 0.0=NO )
Table cut-offs 3: RA/DEC angular rate (     0.0=NO )                           
*******************************************************************************
Initial IAU76/J2000 heliocentric ecliptic osculating elements (au, days, deg.):
  EPOCH=  2458376.5 ! 2018-Sep-15.00 (TDB)         Residual RMS= .12525        
   EC= .3382936082205208   QR= .9576766169446216   TP= 2458412.3293739939      
   OM= 161.903422202901    W=  234.5704247756858   IN= 9.466091569921099       
  Equivalent ICRF heliocentric cartesian coordinates (au, au/d):
   X= 1.017940821946709E+00  Y=-7.278189102440286E-02  Z=-7.249995171787897E-02
  VX=-1.754817228708964E-03 VY= 1.862872143473751E-02 VZ= 4.887370356508847E-03
Asteroid physical parameters (km, seconds, rotational period in hours):        
   GM= n.a.                RAD= n.a.               ROTPER= n.a.                
   H= 24.3                 G= .150                 B-V= n.a.                   
                           ALBEDO= n.a.            STYP= n.a.                  
*******************************************************************************
 Date__(UT)__HR:MN     R.A._________(ICRF)_________DEC
******************************************************
$$SOE
 2018-Dec-12 05:56     09 57 20.472207 -19 30 28.12328
 2018-Dec-12 05:57     09 57 20.489178 -19 30 27.87610
 2018-Dec-12 05:58     09 57 20.506124 -19 30 27.62882
 2018-Dec-12 05:59     09 57 20.523045 -19 30 27.38142
 2018-Dec-12 06:00     09 57 20.539940 -19 30 27.13392
 2018-Dec-12 06:01     09 57 20.556810 -19 30 26.88632
 2018-Dec-12 06:02     09 57 20.573655 -19 30 26.63861
 2018-Dec-12 06:03     09 57 20.590475 -19 30 26.39078
 2018-Dec-12 06:04     09 57 20.607270 -19 30 26.14285
 2018-Dec-12 06:05     09 57 20.624041 -19 30 25.89482
 2018-Dec-12 06:06     09 57 20.640786 -19 30 25.64667
 2018-Dec-12 06:07     09 57 20.657508 -19 30 25.39841
 2018-Dec-12 06:08     09 57 20.674204 -19 30 25.15004
 2018-Dec-12 06:09     09 57 20.690876 -19 30 24.90156
 2018-Dec-12 06:10     09 57 20.707524 -19 30 24.65297
 2018-Dec-12 06:11     09 57 20.724148 -19 30 24.40427
 2018-Dec-12 06:12     09 57 20.740747 -19 30 24.15546
 2018-Dec-12 06:13     09 57 20.757323 -19 30 23.90653
 2018-Dec-12 06:14     09 57 20.773874 -19 30 23.65749
 2018-Dec-12 06:15     09 57 20.790402 -19 30 23.40834
 2018-Dec-12 06:16     09 57 20.806906 -19 30 23.15907
 2018-Dec-12 06:17     09 57 20.823386 -19 30 22.90969
 2018-Dec-12 06:18     09 57 20.839843 -19 30 22.66019
 2018-Dec-12 06:19     09 57 20.856276 -19 30 22.41058
 2018-Dec-12 06:20     09 57 20.872686 -19 30 22.16085
 2018-Dec-12 06:21     09 57 20.889072 -19 30 21.91101
 2018-Dec-12 06:22     09 57 20.905435 -19 30 21.66104
 2018-Dec-12 06:23     09 57 20.921776 -19 30 21.41096
 2018-Dec-12 06:24     09 57 20.938093 -19 30 21.16077
 2018-Dec-12 06:25     09 57 20.954387 -19 30 20.91045
 2018-Dec-12 06:26     09 57 20.970659 -19 30 20.66002
 2018-Dec-12 06:27     09 57 20.986908 -19 30 20.40947
 2018-Dec-12 06:28     09 57 21.003134 -19 30 20.15879
 2018-Dec-12 06:29     09 57 21.019338 -19 30 19.90800
 2018-Dec-12 06:30     09 57 21.035519 -19 30 19.65709
 2018-Dec-12 06:31     09 57 21.051678 -19 30 19.40606
 2018-Dec-12 06:32     09 57 21.067815 -19 30 19.15490
 2018-Dec-12 06:33     09 57 21.083930 -19 30 18.90363
 2018-Dec-12 06:34     09 57 21.100023 -19 30 18.65223
 2018-Dec-12 06:35     09 57 21.116094 -19 30 18.40071
 2018-Dec-12 06:36     09 57 21.132143 -19 30 18.14906
 2018-Dec-12 06:37     09 57 21.148170 -19 30 17.89730
 2018-Dec-12 06:38     09 57 21.164176 -19 30 17.64541
 2018-Dec-12 06:39     09 57 21.180161 -19 30 17.39339
 2018-Dec-12 06:40     09 57 21.196124 -19 30 17.14125
 2018-Dec-12 06:41     09 57 21.212066 -19 30 16.88899
 2018-Dec-12 06:42     09 57 21.227986 -19 30 16.63660
 2018-Dec-12 06:43     09 57 21.243886 -19 30 16.38408
 2018-Dec-12 06:44     09 57 21.259765 -19 30 16.13144
 2018-Dec-12 06:45     09 57 21.275623 -19 30 15.87867
 2018-Dec-12 06:46     09 57 21.291460 -19 30 15.62578
 2018-Dec-12 06:47     09 57 21.307276 -19 30 15.37275
 2018-Dec-12 06:48     09 57 21.323072 -19 30 15.11960
 2018-Dec-12 06:49     09 57 21.338848 -19 30 14.86632
 2018-Dec-12 06:50     09 57 21.354603 -19 30 14.61292
 2018-Dec-12 06:51     09 57 21.370338 -19 30 14.35938
 2018-Dec-12 06:52     09 57 21.386053 -19 30 14.10571
 2018-Dec-12 06:53     09 57 21.401749 -19 30 13.85192
 2018-Dec-12 06:54     09 57 21.417424 -19 30 13.59799
 2018-Dec-12 06:55     09 57 21.433079 -19 30 13.34394
 2018-Dec-12 06:56     09 57 21.448715 -19 30 13.08975
 2018-Dec-12 06:57     09 57 21.464331 -19 30 12.83543
 2018-Dec-12 06:58     09 57 21.479928 -19 30 12.58098
 2018-Dec-12 06:59     09 57 21.495506 -19 30 12.32640
 2018-Dec-12 07:00     09 57 21.511064 -19 30 12.07168
 2018-Dec-12 07:01     09 57 21.526604 -19 30 11.81684
 2018-Dec-12 07:02     09 57 21.542124 -19 30 11.56186
 2018-Dec-12 07:03     09 57 21.557626 -19 30 11.30674
 2018-Dec-12 07:04     09 57 21.573108 -19 30 11.05150
 2018-Dec-12 07:05     09 57 21.588573 -19 30 10.79611
 2018-Dec-12 07:06     09 57 21.604018 -19 30 10.54060
 2018-Dec-12 07:07     09 57 21.619445 -19 30 10.28495
 2018-Dec-12 07:08     09 57 21.634854 -19 30 10.02916
 2018-Dec-12 07:09     09 57 21.650245 -19 30 09.77324
 2018-Dec-12 07:10     09 57 21.665618 -19 30 09.51718
 2018-Dec-12 07:11     09 57 21.680973 -19 30 09.26099
 2018-Dec-12 07:12     09 57 21.696310 -19 30 09.00466
 2018-Dec-12 07:13     09 57 21.711629 -19 30 08.74819
 2018-Dec-12 07:14     09 57 21.726931 -19 30 08.49158
 2018-Dec-12 07:15     09 57 21.742215 -19 30 08.23484
 2018-Dec-12 07:16     09 57 21.757482 -19 30 07.97796
 2018-Dec-12 07:17     09 57 21.772731 -19 30 07.72094
 2018-Dec-12 07:18     09 57 21.787964 -19 30 07.46378
 2018-Dec-12 07:19     09 57 21.803179 -19 30 07.20649
 2018-Dec-12 07:20     09 57 21.818378 -19 30 06.94905
 2018-Dec-12 07:21     09 57 21.833559 -19 30 06.69148
 2018-Dec-12 07:22     09 57 21.848725 -19 30 06.43376
 2018-Dec-12 07:23     09 57 21.863873 -19 30 06.17591
 2018-Dec-12 07:24     09 57 21.879005 -19 30 05.91791
 2018-Dec-12 07:25     09 57 21.894121 -19 30 05.65978
 2018-Dec-12 07:26     09 57 21.909221 -19 30 05.40150
 2018-Dec-12 07:27     09 57 21.924305 -19 30 05.14308
 2018-Dec-12 07:28     09 57 21.939372 -19 30 04.88452
 2018-Dec-12 07:29     09 57 21.954424 -19 30 04.62582
 2018-Dec-12 07:30     09 57 21.969461 -19 30 04.36697
 2018-Dec-12 07:31     09 57 21.984481 -19 30 04.10798
 2018-Dec-12 07:32     09 57 21.999487 -19 30 03.84885
 2018-Dec-12 07:33     09 57 22.014476 -19 30 03.58958
 2018-Dec-12 07:34     09 57 22.029451 -19 30 03.33016
 2018-Dec-12 07:35     09 57 22.044411 -19 30 03.07060
 2018-Dec-12 07:36     09 57 22.059355 -19 30 02.81090
 2018-Dec-12 07:37     09 57 22.074285 -19 30 02.55105
 2018-Dec-12 07:38     09 57 22.089200 -19 30 02.29105
 2018-Dec-12 07:39     09 57 22.104101 -19 30 02.03092
 2018-Dec-12 07:40     09 57 22.118987 -19 30 01.77063
 2018-Dec-12 07:41     09 57 22.133859 -19 30 01.51020
 2018-Dec-12 07:42     09 57 22.148716 -19 30 01.24963
 2018-Dec-12 07:43     09 57 22.163560 -19 30 00.98891
 2018-Dec-12 07:44     09 57 22.178389 -19 30 00.72804
 2018-Dec-12 07:45     09 57 22.193205 -19 30 00.46703
 2018-Dec-12 07:46     09 57 22.208007 -19 30 00.20587
 2018-Dec-12 07:47     09 57 22.222795 -19 29 59.94456
 2018-Dec-12 07:48     09 57 22.237570 -19 29 59.68311
 2018-Dec-12 07:49     09 57 22.252331 -19 29 59.42151
 2018-Dec-12 07:50     09 57 22.267079 -19 29 59.15976
 2018-Dec-12 07:51     09 57 22.281815 -19 29 58.89786
 2018-Dec-12 07:52     09 57 22.296537 -19 29 58.63582
 2018-Dec-12 07:53     09 57 22.311246 -19 29 58.37362
 2018-Dec-12 07:54     09 57 22.325943 -19 29 58.11128
 2018-Dec-12 07:55     09 57 22.340627 -19 29 57.84879
 2018-Dec-12 07:56     09 57 22.355298 -19 29 57.58615
 2018-Dec-12 07:57     09 57 22.369958 -19 29 57.32336
 2018-Dec-12 07:58     09 57 22.384605 -19 29 57.06042
